0 COSMOS 1666
1 15889U 85058A   13282.50414891  .00004009  00000-0  24971-3 0  9545
2 15889 082.5012 244.5828 0022670 040.6962 098.2997 15.09095585538342
0 COSMOS 1666
1 15889U 85058A   13283.94299378  .00004667  00000-0  29096-3 0  9559
2 15889 082.5009 243.1767 0022671 035.9505 354.9966 15.09102800538567
0 COSMOS 1666
1 15889U 85058A   13286.48252794  .00003395  00000-0  21111-3 0  9571
2 15889 082.5004 240.6945 0022609 027.9233 111.0894 15.09117735538949
0 COSMOS 1666
1 15889U 85058A   13287.85981508  .00005272  00000-0  32870-3 0  9586
2 15889 082.5005 239.3481 0022478 023.4499 033.4260 15.09129785539155
0 COSMOS 1666
1 15889U 85058A   13288.92070553  .00005582  00000-0  34806-3 0  9590
2 15889 082.5007 238.3109 0022407 020.0848 036.8526 15.09141117539319
0 COSMOS 1666
1 15889U 85058A   13290.46082644  .00005610  00000-0  34969-3 0  9600
2 15889 082.5011 236.8052 0022358 015.1293 123.8939 15.09153150539548
0 COSMOS 1666
1 15889U 85058A   13291.96861402  .00004709  00000-0  29317-3 0  9613
2 15889 082.5014 235.3312 0022232 010.2772 035.3491 15.09166287539773
0 COSMOS 1666
1 15889U 85058A   13293.44449264  .00005251  00000-0  32704-3 0  9624
2 15889 082.5013 233.8885 0022120 005.5326 133.5168 15.09178721539990
0 COSMOS 1666
1 15889U 85058A   13294.81680630  .00005435  00000-0  33847-3 0  9634
2 15889 082.5009 232.5472 0022015 001.1415 029.0670 15.09189141540208
0 COSMOS 1666
1 15889U 85058A   13295.94677822  .00004928  00000-0  30670-3 0  9646
2 15889 082.5006 231.4428 0021900 357.4420 048.1401 15.09198124540372
